OBJECT_NAME,OBJECT_ID,EPOCH,MEAN_MOTION,ECCENTRICITY,INCLINATION,RA_OF_ASC_NODE,ARG_OF_PERICENTER,MEAN_ANOMALY,EPHEMERIS_TYPE,CLASSIFICATION_TYPE,NORAD_CAT_ID,ELEMENT_SET_NO,REV_AT_EPOCH,BSTAR,MEAN_MOTION_DOT,MEAN_MOTION_DDOT
STARLINK-4076,2022-053M,2026-06-05T03:52:11.346816,15.08834515,.0001561,53.1799,121.4184,68.0515,292.0642,0,U,52667,999,22425,.20283916E-4,.35E-6,0
STARLINK-4067,2022-053N,2026-06-04T05:47:23.351136,15.08833344,.0001536,53.1810,125.5499,62.3503,297.7645,0,U,52668,999,22411,.83178437E-4,.1036E-4,0
STARLINK-3972,2022-053P,2026-06-05T02:00:54.496512,15.08835074,.00014671,53.1793,121.7683,71.6215,288.4936,0,U,52669,999,22423,.25128003E-4,.112E-5,0
STARLINK-4075,2022-053Q,2026-06-04T04:17:19.019040,15.08837820,.00018489,53.1813,125.9036,54.9157,305.2008,0,U,52670,999,22410,.48535282E-4,.484E-5,0
STARLINK-4071,2022-053R,2026-06-04T03:40:11.931168,15.08861010,.00023925,53.1820,125.9566,154.9750,205.1359,0,U,52671,999,22409,-.3823678E-3,-.6373E-4,0
STARLINK-4073,2022-053S,2026-06-05T02:11:30.196608,15.08834323,.00013581,53.1790,121.7218,77.0912,283.0231,0,U,52672,999,22423,.39296592E-4,.337E-5,0
STARLINK-3976,2022-053T,2026-06-05T04:55:47.175168,15.08807500,.00013051,53.1781,121.2191,80.4183,279.6956,0,U,52673,999,22425,.34985363E-3,.528E-4,0
STARLINK-3936,2022-053U,2026-06-05T08:00:03.000384,15.44043252,.00016435,53.2172,112.5105,73.2758,66.4559,0,U,52674,999,581,.40260017E-2,.190936E-2,0
STARLINK-3934,2022-053V,2026-06-05T03:16:24.967776,15.08823630,.00013134,53.1787,111.5331,96.0271,264.0870,0,U,52675,999,22437,.29343985E-3,.4383E-4,0
STARLINK-4006,2022-053W,2026-06-05T01:50:18.776544,15.08811002,.0001549,53.1790,121.8115,83.6667,276.4501,0,U,52676,999,22423,.33423307E-3,.5031E-4,0
STARLINK-4074,2022-053Y,2026-06-05T03:32:19.836384,15.08836547,.00012654,53.1792,111.5904,82.0177,278.0958,0,U,52678,999,22437,.4039688E-4,.355E-5,0
STARLINK-4031,2022-053Z,2026-06-04T02:59:07.553472,15.08851433,.00015333,53.1832,116.0756,97.5164,262.6002,0,U,52679,999,22418,-.9443426E-3,-.15291E-3,0
STARLINK-3774,2022-053AA,2026-06-05T01:03:55.388448,15.08819434,.00013526,53.1789,111.7187,71.3718,288.7420,0,U,52680,999,22434,-.27164648E-4,-.72E-5,0
STARLINK-4068,2022-053AB,2026-06-05T04:20:00.614688,15.08834228,.00014082,53.1782,111.3310,71.5509,288.5636,0,U,52681,999,22434,.95446283E-4,.1231E-4,0
STARLINK-4017,2022-053AC,2026-06-04T04:45:07.129152,15.08839583,.00016722,53.1820,115.7372,76.4004,283.7174,0,U,52682,999,22421,-.16073822E-3,-.2845E-4,0
STARLINK-4014,2022-053AE,2026-06-04T03:04:25.696416,15.08862133,.00017944,53.1806,116.0695,131.6269,228.4877,0,U,52684,999,22418,-.37624856E-3,-.6275E-4,0
STARLINK-4029,2022-053AF,2026-06-05T03:58:50.554560,15.08834363,.00014556,53.1787,111.4081,95.4709,264.6449,0,U,52685,999,22432,.48466137E-4,.483E-5,0
STARLINK-4005,2022-053AG,2026-06-05T03:17:50.762112,15.08836523,.00013504,53.1791,111.8052,83.0389,277.0756,0,U,52686,999,22432,.25169011E-4,.113E-5,0
STARLINK-3981,2022-053AH,2026-06-05T03:53:30.886656,15.08814573,.00013719,53.1787,111.4192,92.2725,267.8424,0,U,52687,999,22432,.25376805E-3,.375E-4,0
STARLINK-4032,2022-053AJ,2026-06-05T03:48:11.444256,15.08833055,.00011365,53.1791,111.3200,101.1796,258.9323,0,U,52688,999,22432,.20846861E-4,.44E-6,0
STARLINK-4078,2022-053AK,2026-06-05T08:00:03.000384,15.70031038,.00023673,53.2066,17.5720,145.0850,141.8212,0,U,52689,999,598,.84273261E-3,.104183E-2,0
STARLINK-4035,2022-053AL,2026-06-05T00:53:18.940128,15.08869685,.0002205,53.1804,111.9920,150.1948,209.9170,0,U,52690,999,22430,.10702915E-3,.1417E-4,0
STARLINK-3993,2022-053AN,2026-06-05T03:11:04.331328,15.08836497,.00012707,53.1797,111.2760,83.8118,276.3019,0,U,52692,999,22435,.15014143E-4,-.49E-6,0
STARLINK-3946,2022-053AP,2026-06-05T03:21:42.759072,15.08840215,.00013373,53.1803,111.5148,56.1767,303.9352,0,U,52693,999,22435,.48366901E-4,.482E-5,0
STARLINK-4072,2022-053AQ,2026-06-05T03:42:54.750240,15.08833160,.00014111,53.1787,111.4491,87.8753,272.2401,0,U,52694,999,22435,.22379307E-4,.68E-6,0
STARLINK-4041,2022-053AR,2026-06-04T04:47:04.300512,15.08859185,.00015359,53.1815,120.5375,123.9315,236.1823,0,U,52695,999,22415,-.48855931E-3,-.8059E-4,0
STARLINK-4018,2022-053AT,2026-06-05T03:40:58.665792,15.08819456,.00012871,53.1786,116.4551,90.3637,269.7502,0,U,52697,999,22429,.30065756E-3,.4498E-4,0
STARLINK-4030,2022-053AU,2026-06-05T03:55:29.335008,15.08851132,.00010785,53.1799,116.4033,94.7304,265.3811,0,U,52698,999,22428,-.26284827E-3,-.447E-4,0
STARLINK-3987,2022-053AV,2026-06-05T03:25:01.860096,15.08832324,.00012744,53.1781,106.5371,104.8325,255.2808,0,U,52699,999,22444,.31407297E-4,.212E-5,0
STARLINK-4034,2022-053AW,2026-06-04T12:38:46.147200,15.08765247,.00014288,53.1817,118.9071,102.4692,257.6460,0,U,52700,999,22420,-.97927667E-3,-.15808E-3,0
