STARLINK-4076           
1 52667U 22053M   26156.16124244  .00000035  00000+0  20284-4 0  9999
2 52667  53.1799 121.4184 0001561  68.0515 292.0642 15.08834515224251
STARLINK-4067           
1 52668U 22053N   26155.24124249  .00001036  00000+0  83178-4 0  9996
2 52668  53.1810 125.5499 0001536  62.3503 297.7645 15.08833344224115
STARLINK-3972           
1 52669U 22053P   26156.08396408  .00000112  00000+0  25128-4 0  9993
2 52669  53.1793 121.7683 0001467  71.6215 288.4936 15.08835074224230
STARLINK-4075           
1 52670U 22053Q   26155.17869235  .00000484  00000+0  48535-4 0  9996
2 52670  53.1813 125.9036 0001848  54.9157 305.2008 15.08837820224100
STARLINK-4071           
1 52671U 22053R   26155.15291587 -.00006373  00000+0 -38237-3 0  9996
2 52671  53.1820 125.9566 0002392 154.9750 205.1359 15.08861010224095
STARLINK-4073           
1 52672U 22053S   26156.09132172  .00000337  00000+0  39297-4 0  9995
2 52672  53.1790 121.7218 0001358  77.0912 283.0231 15.08834323224233
STARLINK-3976           
1 52673U 22053T   26156.20540712  .00005280  00000+0  34985-3 0  9992
2 52673  53.1781 121.2191 0001305  80.4183 279.6956 15.08807500224253
STARLINK-3936           
1 52674U 22053U   26156.33336806  .00190936  00000+0  40260-2 0  9999
2 52674  53.2172 112.5105 0001643  73.2758  66.4559 15.44043252  5816
STARLINK-3934           
1 52675U 22053V   26156.13640009  .00004383  00000+0  29344-3 0  9992
2 52675  53.1787 111.5331 0001313  96.0271 264.0870 15.08823630224377
STARLINK-4006           
1 52676U 22053W   26156.07660621  .00005031  00000+0  33423-3 0  9992
2 52676  53.1790 121.8115 0001549  83.6667 276.4501 15.08811002224231
STARLINK-4074           
1 52678U 22053Y   26156.14745181  .00000355  00000+0  40397-4 0  9990
2 52678  53.1792 111.5904 0001265  82.0177 278.0958 15.08836547224371
STARLINK-4031           
1 52679U 22053Z   26155.12439298 -.00015291  00000+0 -94434-3 0  9994
2 52679  53.1832 116.0756 0001533  97.5164 262.6002 15.08851433224186
STARLINK-3774           
1 52680U 22053AA  26156.04439107 -.00000720  00000+0 -27165-4 0  9996
2 52680  53.1789 111.7187 0001352  71.3718 288.7420 15.08819434224349
STARLINK-4068           
1 52681U 22053AB  26156.18056267  .00001231  00000+0  95446-4 0  9997
2 52681  53.1782 111.3310 0001408  71.5509 288.5636 15.08834228224344
STARLINK-4017           
1 52682U 22053AC  26155.19799918 -.00002845  00000+0 -16074-3 0  9998
2 52682  53.1820 115.7372 0001672  76.4004 283.7174 15.08839583224210
STARLINK-4014           
1 52684U 22053AE  26155.12807519 -.00006275  00000+0 -37625-3 0  9996
2 52684  53.1806 116.0695 0001794 131.6269 228.4877 15.08862133224189
STARLINK-4029           
1 52685U 22053AF  26156.16586290  .00000483  00000+0  48466-4 0  9991
2 52685  53.1787 111.4081 0001455  95.4709 264.6449 15.08834363224323
STARLINK-4005           
1 52686U 22053AG  26156.13739308  .00000113  00000+0  25169-4 0  9994
2 52686  53.1791 111.8052 0001350  83.0389 277.0756 15.08836523224321
STARLINK-3981           
1 52687U 22053AH  26156.16216304  .00003750  00000+0  25377-3 0  9994
2 52687  53.1787 111.4192 0001371  92.2725 267.8424 15.08814573224327
STARLINK-4032           
1 52688U 22053AJ  26156.15846579  .00000044  00000+0  20847-4 0  9998
2 52688  53.1791 111.3200 0001136 101.1796 258.9323 15.08833055224324
STARLINK-4078           
1 52689U 22053AK  26156.33336806  .00104183  00000+0  84273-3 0  9997
2 52689  53.2066  17.5720 0002367 145.0850 141.8212 15.70031038  5986
STARLINK-4035           
1 52690U 22053AL  26156.03702477  .00001417  00000+0  10703-3 0  9990
2 52690  53.1804 111.9920 0002205 150.1948 209.9170 15.08869685224300
STARLINK-3993           
1 52692U 22053AN  26156.13268902 -.00000049  00000+0  15014-4 0  9995
2 52692  53.1797 111.2760 0001270  83.8118 276.3019 15.08836497224350
STARLINK-3946           
1 52693U 22053AP  26156.14007823  .00000482  00000+0  48367-4 0  9997
2 52693  53.1803 111.5148 0001337  56.1767 303.9352 15.08840215224359
STARLINK-4072           
1 52694U 22053AQ  26156.15480035  .00000068  00000+0  22379-4 0  9994
2 52694  53.1787 111.4491 0001411  87.8753 272.2401 15.08833160224354
STARLINK-4041           
1 52695U 22053AR  26155.19935533 -.00008059  00000+0 -48856-3 0  9993
2 52695  53.1815 120.5375 0001535 123.9315 236.1823 15.08859185224152
STARLINK-4018           
1 52697U 22053AT  26156.15345678  .00004498  00000+0  30066-3 0  9992
2 52697  53.1786 116.4551 0001287  90.3637 269.7502 15.08819456224297
STARLINK-4030           
1 52698U 22053AU  26156.16353397 -.00004470  00000+0 -26285-3 0  9991
2 52698  53.1799 116.4033 0001078  94.7304 265.3811 15.08851132224285
STARLINK-3987           
1 52699U 22053AV  26156.14238264  .00000212  00000+0  31407-4 0  9996
2 52699  53.1781 106.5371 0001274 104.8325 255.2808 15.08832324224440
STARLINK-4034           
1 52700U 22053AW  26155.52692300 -.00015808  00000+0 -97928-3 0  9993
2 52700  53.1817 118.9071 0001428 102.4692 257.6460 15.08765247224202
